STARLINK-2285_new
1 18019C 21024AU  21326.14931947  .00002457  00000-0  16456-3 0  3260
2 18019  53.0549 153.0740 0001968  81.5540 308.4299 15.06401398    10
STARLINK-2285_old
1 28019C 21024AU  21325.15419028  .00003114  00000-0  20865-3 0  3250
2 28019  53.0545 157.5412 0001970  79.8062 310.5672 15.06396764    12
